ONEWEB-0311             
1 49097U 21075Y   26201.88737820  .00000051  00000+0  98071-4 0  9992
2 49097  87.9153 359.1590 0001582  82.0375 278.0936 13.17648137238062
ONEWEB-0312             
1 49098U 21075Z   26201.90256964  .00000063  00000+0  12928-3 0  9990
2 49098  87.9152 359.1660 0001935  84.7919 275.3434 13.17648984238046
ONEWEB-0313             
1 49099U 21075AA  26201.90748252 -.00000107  00000+0 -30812-3 0  9990
2 49099  87.9150 359.1699 0001817  90.9075 269.2265 13.17647840238031
ONEWEB-0314             
1 49100U 21075AB  26201.87386693  .00000007  00000+0 -15474-4 0  9992
2 49100  87.9161 359.1535 0001985  82.6220 277.5137 13.17647264238008
ONEWEB-0315             
1 49101U 21075AC  26201.90533827  .00000035  00000+0  60887-4 0  9998
2 49101  87.8978 343.9424 0001523  89.7148 270.4155 13.12443654239596
ONEWEB-0316             
1 49102U 21075AD  26201.84811630  .00000058  00000+0  11353-3 0  9991
2 49102  87.9197 328.7631 0001978  99.2493 260.8863 13.18686326241644
ONEWEB-0317             
1 49103U 21075AE  26201.90872855  .00000146  00000+0  37115-3 0  9997
2 49103  87.8973 343.9650 0002542 103.8822 256.2590 13.12443730239616
ONEWEB-0318             
1 49104U 21075AF  26201.84460565  .00000034  00000+0  53124-4 0  9997
2 49104  87.9200 328.7661 0001775  94.8114 265.3221 13.18686736241609
ONEWEB-0319             
1 49105U 21075AG  26201.88906515 -.00000010  00000+0 -59953-4 0  9994
2 49105  87.9152 359.1639 0001397  85.0728 275.0563 13.17648040238048
ONEWEB-0323             
1 49106U 21075AH  26201.89008605 -.00000426  00000+0 -12202-2 0  9994
2 49106  87.8978 343.9506 0001510  82.1866 277.9434 13.12443014238975
ONEWEB-0329             
1 49107U 21075AJ  26201.89749386 -.00000060  00000+0 -18862-3 0  9996
2 49107  87.9156 359.1629 0001892  88.6571 271.4777 13.17647822238020
ONEWEB-0330             
1 49108U 21075AK  26201.90100635  .00000027  00000+0  35711-4 0  9991
2 49108  87.9155 359.1738 0001960  89.1927 270.9429 13.17646789238061
ONEWEB-0292             
1 49186U 21083A   26201.83605462  .00000272  00000+0  71097-3 0  9994
2 49186  87.8980 313.5421 0001808  99.0673 261.0660 13.13470142235344
ONEWEB-0303             
1 49187U 21083B   26201.91710948  .00000057  00000+0  11239-3 0  9993
2 49187  87.9199 328.7499 0001744  95.6883 264.4448 13.18684287234426
ONEWEB-0306             
1 49188U 21083C   26201.90699940 -.00000084  00000+0 -24559-3 0  9992
2 49188  87.9203 328.7412 0002177 100.2908 259.8470 13.18685163234461
ONEWEB-0307             
1 49189U 21083D   26201.83012760  .00000257  00000+0  66953-3 0  9998
2 49189  87.8980 313.5412 0001889  96.7544 263.3800 13.13469249235344
